YAOGAN-43 01G           
1 60464U 24148G   26068.44348481  .00010133  00000+0  35873-3 0  9993
2 60464  35.0006  62.0013 0007382 306.3543  53.6492 15.28332833 87004
STARLINK-36078          
1 67050U 25294W   26068.30866880  .00012880  00000+0  47667-3 0  9992
2 67050  43.0053  39.9878 0001366 280.7022  79.3676 15.27585363 14745
